ONEWEB-0094             
1 45450U 20020AC  26165.08954664  .00000052  00000+0  99775-4 0  9991
2 45450  87.9145   6.4651 0001631  85.1012 275.0306 13.17647426305905
ONEWEB-0087             
1 45451U 20020AD  26165.13199265  .00000520  00000+0  14320-2 0  9997
2 45451  87.8907  21.6503 0001716  75.8005 284.3314 13.11416488302183
ONEWEB-0082             
1 45452U 20020AE  26165.12861137  .00000569  00000+0  15685-2 0  9999
2 45452  87.8898  21.6679 0001908  70.5713 289.5621 13.11417990302275
ONEWEB-0050             
1 45453U 20020AF  26165.18820337  .00002537  00000+0  25865-3 0  9992
2 45453  88.9301 233.6175 0003617  33.8639 326.2820 14.90371193339936
ONEWEB-0034             
1 45454U 20020AG  26165.08986716 -.00000946  00000+0 -27046-2 0  9992
2 45454  87.8897  21.6849 0001736  84.9654 275.1672 13.11423504302182
ONEWEB-0060             
1 45455U 20020AH  26165.12110317  .00000476  00000+0  13077-2 0  9999
2 45455  87.8891  21.6770 0001425  50.5662 309.5592 13.11418619302143
ONEWEB-0086             
1 45456U 20020AJ  26165.09976526 -.00000369  00000+0 -10775-2 0  9993
2 45456  87.8900  21.6768 0001058  76.6961 283.4285 13.11416849302204
ONEWEB-0088             
1 45457U 20020AK  26165.15416059 -.00000218  00000+0 -65203-3 0  9991
2 45457  87.8906  21.6380 0002193  80.8124 279.3252 13.11416154302140
ONEWEB-0102             
1 47258U 20100A   26165.23693929 -.00000611  00000+0 -17337-2 0  9994
2 47258  87.8938 351.2622 0001579  96.6756 263.4553 13.12442778264349
ONEWEB-0109             
1 47259U 20100B   26165.24541244 -.00000281  00000+0 -81586-3 0  9999
2 47259  87.8948 351.2438 0001817  95.6877 264.4459 13.12445187264178
ONEWEB-0110             
1 47260U 20100C   26165.27252772  .00000435  00000+0  11738-2 0  9999
2 47260  87.8949 351.2227 0001548  87.8757 272.2548 13.12443931264348
ONEWEB-0111             
1 47261U 20100D   26165.22677459 -.00000253  00000+0 -73829-3 0  9998
2 47261  87.8948 351.2501 0001766  86.9715 273.1616 13.12440602264178
ONEWEB-0114             
1 47262U 20100E   26165.25727518  .00000065  00000+0  14533-3 0  9990
2 47262  87.8949 351.2418 0002005  96.2295 263.9062 13.12444998264131
ONEWEB-0117             
1 47263U 20100F   26164.94385935 -.00000131  00000+0 -39825-3 0  9996
2 47263  87.8946 351.2952 0001763  90.5237 269.6093 13.12444310264107
ONEWEB-0118             
1 47264U 20100G   26165.20645779  .00000332  00000+0  88877-3 0  9994
2 47264  87.8947 351.2454 0002135  92.4418 267.6955 13.12442145264336
ONEWEB-0119             
1 47265U 20100H   26165.23186554 -.00000390  00000+0 -11191-2 0  9999
2 47265  87.8937 351.2572 0001808  90.5708 269.5628 13.12442833264314
